OBJECT_NAME,OBJECT_ID,EPOCH,MEAN_MOTION,ECCENTRICITY,INCLINATION,RA_OF_ASC_NODE,ARG_OF_PERICENTER,MEAN_ANOMALY,EPHEMERIS_TYPE,CLASSIFICATION_TYPE,NORAD_CAT_ID,ELEMENT_SET_NO,REV_AT_EPOCH,BSTAR,MEAN_MOTION_DOT,MEAN_MOTION_DDOT
STARLINK-6060,2023-078AD,2026-07-05T23:39:38.745504,14.98338967,.00025257,69.9996,26.1706,267.9375,92.1494,0,U,56794,999,17089,.99724695E-4,.1097E-4,0
STARLINK-6061,2023-078AE,2026-07-05T23:03:48.365280,14.98341726,.00030665,69.9999,26.0825,268.1464,91.9344,0,U,56795,999,17089,.10741665E-3,.1189E-4,0
STARLINK-6049,2023-078AF,2026-07-06T00:40:03.912384,14.98324687,.0002831,69.9995,46.1848,269.9333,90.1502,0,U,56796,999,17040,-.667859E-5,-.173E-5,0
STARLINK-6058,2023-078AG,2026-07-06T00:58:03.464832,14.98341608,.00030552,69.9992,46.2210,270.1111,89.9698,0,U,56797,999,17040,.91149348E-4,.995E-5,0
STARLINK-5953,2023-078AJ,2026-07-06T00:22:02.010720,14.98322788,.00028616,69.9997,46.1368,270.1674,89.9157,0,U,56799,999,17040,-.48969076E-4,-.677E-5,0
STARLINK-6036,2023-078AK,2026-07-06T00:28:02.679744,14.98323398,.00027967,69.9995,46.1546,269.9108,90.1730,0,U,56800,999,17040,-.38066839E-4,-.547E-5,0
STARLINK-6087,2023-078AL,2026-07-05T23:15:35.255520,14.98327814,.00028518,69.9999,26.1119,266.5298,93.5535,0,U,56801,999,17089,.3205256E-5,-.55E-6,0
STARLINK-6029,2023-078AN,2026-07-06T00:10:00.577632,14.98324593,.00029402,69.9994,46.1101,269.6630,90.4192,0,U,56803,999,17040,-.76984329E-4,-.1011E-4,0
STARLINK-6069,2023-078AP,2026-07-05T23:27:36.506304,14.98328235,.00025888,69.9996,26.1416,268.2085,91.8778,0,U,56804,999,17156,.14363678E-4,.78E-6,0
STARLINK-6064,2023-078AQ,2026-07-05T23:33:37.249632,14.98326804,.00024184,69.9996,26.1544,269.6104,90.4778,0,U,56805,999,17089,-.1590531E-5,-.112E-5,0
STARLINK-6072,2023-078AR,2026-07-05T22:39:11.892960,14.98327451,.00027057,70.0002,6.1406,264.9192,95.1658,0,U,56806,999,17135,-.36377558E-4,-.527E-5,0
STARLINK-6073,2023-078AS,2026-07-05T23:03:33.759360,14.98323408,.00030509,70.0021,26.0803,270.4071,89.6738,0,U,56807,999,17088,-.25819424E-3,-.3172E-4,0
STARLINK-6042,2023-078AT,2026-07-05T19:59:29.817600,14.98329495,.00030818,70.0006,336.6582,269.2374,90.8432,0,U,56808,999,17211,.854216E-6,-.83E-6,0
STARLINK-6040,2023-078AU,2026-07-05T23:39:57.359520,14.98325008,.00026278,70.0000,46.0384,273.0893,86.9965,0,U,56809,999,17040,-.53539972E-4,-.732E-5,0
STARLINK-6031,2023-078AV,2026-07-06T00:04:00.111648,14.98322623,.00030405,69.9998,46.0958,270.1922,89.8888,0,U,56810,999,17040,-.8179529E-4,-.1069E-4,0
STARLINK-6065,2023-078AX,2026-07-05T23:15:49.476096,14.98329434,.00028787,69.9999,26.1178,268.1264,91.9565,0,U,56812,999,17089,.4260459E-4,.415E-5,0
STARLINK-6056,2023-078AY,2026-07-06T01:10:19.026912,14.98325351,.00028078,70.0000,45.8556,272.1494,87.9343,0,U,56813,999,17041,-.17809387E-4,-.305E-5,0
STARLINK-6059,2023-078AZ,2026-07-05T23:45:54.813600,14.98357235,.00018856,70.0012,46.0518,259.5978,100.4968,0,U,56814,999,17040,.2322882E-3,.2682E-4,0
STARLINK-6067,2023-078BB,2026-07-05T22:57:33.894720,14.98321549,.00029603,69.9999,26.0667,268.5697,91.5123,0,U,56816,999,17089,-.45878397E-4,-.64E-5,0
STARLINK-6028,2023-078BD,2026-07-06T01:10:04.324224,14.98328004,.00026679,70.0015,45.8539,271.5556,88.5297,0,U,56818,999,17110,-.75398951E-4,-.992E-5,0
STARLINK-30119,2023-079A,2026-07-05T07:22:26.628960,15.27574508,.0001097,43.0023,163.0404,266.0483,94.0243,0,U,56823,999,17130,-.26105E-4,-.98E-5,0
STARLINK-30120,2023-079B,2026-07-05T23:24:23.523264,15.27563274,.00010881,43.0028,159.4623,274.6277,85.4450,0,U,56824,999,17129,-.84763718E-4,-.2592E-4,0
STARLINK-30084,2023-079C,2026-07-04T23:59:10.379616,15.27605480,.0002501,43.0071,164.1850,272.4385,87.6181,0,U,56825,999,17083,.23982E-3,.6348E-4,0
STARLINK-30114,2023-079D,2026-07-05T22:52:53.246784,15.27563394,.00008549,42.9980,159.1014,259.4142,100.6614,0,U,56826,999,17128,-.86047813E-4,-.2628E-4,0
STARLINK-30151,2023-079E,2026-07-05T22:39:57.487104,15.27578089,.00011931,42.9941,159.2124,130.7999,229.2956,0,U,56827,999,17097,-.3791079E-4,-.1305E-4,0
STARLINK-30152,2023-079F,2026-07-05T22:45:30.045024,15.27583318,.00010407,42.9984,159.2526,273.3915,86.6818,0,U,56828,999,17097,.29599709E-4,.553E-5,0
STARLINK-30128,2023-079K,2026-07-05T23:45:23.184288,15.27562613,.00013803,43.0017,133.1369,258.3017,101.7680,0,U,56832,999,16487,-.60870363E-4,-.1936E-4,0
STARLINK-30131,2023-079L,2026-07-05T23:50:46.145760,15.24565056,.00019291,42.9998,137.6122,158.2041,201.8892,0,U,56833,999,17122,.48370065E-3,.11917E-3,0
STARLINK-30069,2023-079M,2026-07-05T22:40:40.232640,15.27579241,.00013595,42.9998,155.8152,265.6864,94.3833,0,U,56834,999,17101,-.26809153E-4,-.1E-4,0
STARLINK-30144,2023-079N,2026-07-05T21:46:24.000672,15.42072484,.00134877,42.9911,149.4023,145.8820,214.2906,0,U,56835,999,17108,.20052904E-2,.88667E-3,0
