[ {"name": "STARLINK-6060", "line1": "1 56794U 23078AD  26186.98586511  .00001097  00000+0  99725-4 0  9999", "line2": "2 56794  69.9996  26.1706 0002525 267.9375  92.1494 14.98338967170898"}, {"name": "STARLINK-6061", "line1": "1 56795U 23078AE  26186.96097645  .00001189  00000+0  10742-3 0  9996", "line2": "2 56795  69.9999  26.0825 0003066 268.1464  91.9344 14.98341726170894"}, {"name": "STARLINK-6049", "line1": "1 56796U 23078AF  26187.02782306 -.00000173  00000+0 -66786-5 0  9995", "line2": "2 56796  69.9995  46.1848 0002831 269.9333  90.1502 14.98324687170403"}, {"name": "STARLINK-6058", "line1": "1 56797U 23078AG  26187.04031788  .00000995  00000+0  91149-4 0  9999", "line2": "2 56797  69.9992  46.2210 0003055 270.1111  89.9698 14.98341608170406"}, {"name": "STARLINK-5953", "line1": "1 56799U 23078AJ  26187.01530105 -.00000677  00000+0 -48969-4 0  9996", "line2": "2 56799  69.9997  46.1368 0002861 270.1674  89.9157 14.98322788170402"}, {"name": "STARLINK-6036", "line1": "1 56800U 23078AK  26187.01947546 -.00000547  00000+0 -38067-4 0  9994", "line2": "2 56800  69.9995  46.1546 0002796 269.9108  90.1730 14.98323398170405"}, {"name": "STARLINK-6087", "line1": "1 56801U 23078AL  26186.96915805 -.00000055  00000+0  32053-5 0  9994", "line2": "2 56801  69.9999  26.1119 0002851 266.5298  93.5535 14.98327814170899"}, {"name": "STARLINK-6029", "line1": "1 56803U 23078AN  26187.00695113 -.00001011  00000+0 -76984-4 0  9993", "line2": "2 56803  69.9994  46.1101 0002940 269.6630  90.4192 14.98324593170405"}, {"name": "STARLINK-6069", "line1": "1 56804U 23078AP  26186.97750586  .00000078  00000+0  14364-4 0  9999", "line2": "2 56804  69.9996  26.1416 0002588 268.2085  91.8778 14.98328235171562"}, {"name": "STARLINK-6064", "line1": "1 56805U 23078AQ  26186.98168113 -.00000112  00000+0 -15905-5 0  9994", "line2": "2 56805  69.9996  26.1544 0002418 269.6104  90.4778 14.98326804170894"}, {"name": "STARLINK-6072", "line1": "1 56806U 23078AR  26186.94388765 -.00000527  00000+0 -36378-4 0  9994", "line2": "2 56806  70.0002   6.1406 0002705 264.9192  95.1658 14.98327451171355"}, {"name": "STARLINK-6073", "line1": "1 56807U 23078AS  26186.96080740 -.00003172  00000+0 -25819-3 0  9995", "line2": "2 56807  70.0021  26.0803 0003050 270.4071  89.6738 14.98323408170883"}, {"name": "STARLINK-6042", "line1": "1 56808U 23078AT  26186.83298400 -.00000083  00000+0  85422-6 0  9992", "line2": "2 56808  70.0006 336.6582 0003081 269.2374  90.8432 14.98329495172112"}, {"name": "STARLINK-6040", "line1": "1 56809U 23078AU  26186.98608055 -.00000732  00000+0 -53540-4 0  9996", "line2": "2 56809  70.0000  46.0384 0002627 273.0893  86.9965 14.98325008170406"}, {"name": "STARLINK-6031", "line1": "1 56810U 23078AV  26187.00277907 -.00001069  00000+0 -81795-4 0  9997", "line2": "2 56810  69.9998  46.0958 0003040 270.1922  89.8888 14.98322623170405"}, {"name": "STARLINK-6065", "line1": "1 56812U 23078AX  26186.96932264  .00000415  00000+0  42605-4 0  9996", "line2": "2 56812  69.9999  26.1178 0002878 268.1264  91.9565 14.98329434170891"}, {"name": "STARLINK-6056", "line1": "1 56813U 23078AY  26187.04883133 -.00000305  00000+0 -17809-4 0  9995", "line2": "2 56813  70.0000  45.8556 0002807 272.1494  87.9343 14.98325351170419"}, {"name": "STARLINK-6059", "line1": "1 56814U 23078AZ  26186.99021775  .00002682  00000+0  23229-3 0  9995", "line2": "2 56814  70.0012  46.0518 0001885 259.5978 100.4968 14.98357235170404"}, {"name": "STARLINK-6067", "line1": "1 56816U 23078BB  26186.95664230 -.00000640  00000+0 -45878-4 0  9991", "line2": "2 56816  69.9999  26.0667 0002960 268.5697  91.5123 14.98321549170898"}, {"name": "STARLINK-6028", "line1": "1 56818U 23078BD  26187.04866116 -.00000992  00000+0 -75399-4 0  9992", "line2": "2 56818  70.0015  45.8539 0002667 271.5556  88.5297 14.98328004171107"}, {"name": "STARLINK-30119", "line1": "1 56823U 23079A   26186.30725265 -.00000980  00000+0 -26105-4 0  9994", "line2": "2 56823  43.0023 163.0404 0001097 266.0483  94.0243 15.27574508171300"}, {"name": "STARLINK-30120", "line1": "1 56824U 23079B   26186.97527226 -.00002592  00000+0 -84764-4 0  9991", "line2": "2 56824  43.0028 159.4623 0001088 274.6277  85.4450 15.27563274171294"}, {"name": "STARLINK-30084", "line1": "1 56825U 23079C   26185.99942569  .00006348  00000+0  23982-3 0  9999", "line2": "2 56825  43.0071 164.1850 0002501 272.4385  87.6181 15.27605480170835"}, {"name": "STARLINK-30114", "line1": "1 56826U 23079D   26186.95339406 -.00002628  00000+0 -86048-4 0  9999", "line2": "2 56826  42.9980 159.1014 0000854 259.4142 100.6614 15.27563394171288"}, {"name": "STARLINK-30151", "line1": "1 56827U 23079E   26186.94441536 -.00001305  00000+0 -37911-4 0  9993", "line2": "2 56827  42.9941 159.2124 0001193 130.7999 229.2956 15.27578089170976"}, {"name": "STARLINK-30152", "line1": "1 56828U 23079F   26186.94826441  .00000553  00000+0  29600-4 0  9994", "line2": "2 56828  42.9984 159.2526 0001040 273.3915  86.6818 15.27583318170976"}, {"name": "STARLINK-30128", "line1": "1 56832U 23079K   26186.98985167 -.00001936  00000+0 -60870-4 0  9996", "line2": "2 56832  43.0017 133.1369 0001380 258.3017 101.7680 15.27562613164872"}, {"name": "STARLINK-30131", "line1": "1 56833U 23079L   26186.99358965  .00011917  00000+0  48370-3 0  9996", "line2": "2 56833  42.9998 137.6122 0001929 158.2041 201.8892 15.24565056171224"}, {"name": "STARLINK-30069", "line1": "1 56834U 23079M   26186.94491010 -.00001000  00000+0 -26809-4 0  9999", "line2": "2 56834  42.9998 155.8152 0001359 265.6864  94.3833 15.27579241171014"}, {"name": "STARLINK-30144", "line1": "1 56835U 23079N   26186.90722223  .00088667  00000+0  20053-2 0  9994", "line2": "2 56835  42.9911 149.4023 0013487 145.8820 214.2906 15.42072484171087"}]